[{"OBJECT_NAME":"TIANQI-25","OBJECT_ID":"2024-102A","EPOCH":"2026-03-09T21:59:20.408352","MEAN_MOTION":13.99133359,"ECCENTRICITY":0.00097008,"INCLINATION":44.9789,"RA_OF_ASC_NODE":343.6735,"ARG_OF_PERICENTER":130.7366,"MEAN_ANOMALY":229.431,"EPHEMERIS_TYPE":0,"CLASSIFICATION_TYPE":"U","NORAD_CAT_ID":59909,"ELEMENT_SET_NO":999,"REV_AT_EPOCH":9100,"BSTAR":0.00024425271,"MEAN_MOTION_DOT":2.28e-6,"MEAN_MOTION_DDOT":0},{"OBJECT_NAME":"THOR ABLESTAR DEB","OBJECT_ID":"1961-015HE","EPOCH":"2026-03-09T23:52:47.594784","MEAN_MOTION":13.70261815,"ECCENTRICITY":0.01524061,"INCLINATION":67.4509,"RA_OF_ASC_NODE":36.7542,"ARG_OF_PERICENTER":55.3953,"MEAN_ANOMALY":5.2164,"EPHEMERIS_TYPE":0,"CLASSIFICATION_TYPE":"U","NORAD_CAT_ID":653,"ELEMENT_SET_NO":999,"REV_AT_EPOCH":20429,"BSTAR":0.0014224676,"MEAN_MOTION_DOT":1.295e-5,"MEAN_MOTION_DDOT":0}]
